{
  "type": "FeatureCollection",
  "features": [
    {
      "type": "Feature",
      "properties": {
        "norad_id": 33376,
        "name": "GALAXY 19 (G-19)",
        "group": "intelsat",
        "lat": -0.031550860090486084,
        "lon": -115.59406420693195,
        "alt_km": 35776.90855400493,
        "timestamp": "2025-12-20T16:47:35.958816+00:00",
        "meta_object_name": "GALAXY 19 (G-19)",
        "meta_object_id": "2008-045A",
        "meta_epoch": "2025-12-20T11:54:28.451232",
        "meta_mean_motion": 1.00271451,
        "meta_eccentricity": 0.000252,
        "meta_inclination": 0.0143,
        "meta_ra_of_asc_node": 306.9474,
        "meta_arg_of_pericenter": 327.2001,
        "meta_mean_anomaly": 256.8006,
        "meta_ephemeris_type": 0,
        "meta_classification_type": "U",
        "meta_norad_cat_id": 33376,
        "meta_element_set_no": 999,
        "meta_rev_at_epoch": 6311,
        "meta_bstar": 0,
        "meta_mean_motion_dot": -1.15e-06,
        "meta_mean_motion_ddot": 0,
        "tle_line1": "1 33376U 08045A   25354.49616263 -.00000115  00000+0  00000+0 0  9991",
        "tle_line2": "2 33376   0.0143 306.9474 0002520 327.2001 256.8006  1.00271451 63118"
      },
      "geometry": {
        "type": "Point",
        "coordinates": [
          -115.59406420693195,
          -0.031550860090486084
        ]
      }
    },
    {
      "type": "Feature",
      "properties": {
        "norad_id": 35493,
        "name": "FM-5",
        "group": "intelsat",
        "lat": -0.030606143803766576,
        "lon": -104.71115660165643,
        "alt_km": 35791.62733172231,
        "timestamp": "2025-12-20T16:47:35.958831+00:00",
        "meta_object_name": "FM-5",
        "meta_object_id": "2009-034A",
        "meta_epoch": "2025-12-20T11:23:10.390848",
        "meta_mean_motion": 1.00258882,
        "meta_eccentricity": 0.0001816,
        "meta_inclination": 0.0239,
        "meta_ra_of_asc_node": 289.6726,
        "meta_arg_of_pericenter": 221.3816,
        "meta_mean_anomaly": 22.9059,
        "meta_ephemeris_type": 0,
        "meta_classification_type": "U",
        "meta_norad_cat_id": 35493,
        "meta_element_set_no": 999,
        "meta_rev_at_epoch": 4485,
        "meta_bstar": 0,
        "meta_mean_motion_dot": -1.75e-06,
        "meta_mean_motion_ddot": 0,
        "tle_line1": "1 35493U 09034A   25354.47442582 -.00000175  00000+0  00000+0 0  9997",
        "tle_line2": "2 35493   0.0239 289.6726 0001816 221.3816  22.9059  1.00258882 44851"
      },
      "geometry": {
        "type": "Point",
        "coordinates": [
          -104.71115660165643,
          -0.030606143803766576
        ]
      }
    },
    {
      "type": "Feature",
      "properties": {
        "norad_id": 36097,
        "name": "INTELSAT 14 (IS-14)",
        "group": "intelsat",
        "lat": -0.03585238110023651,
        "lon": -63.5624551759343,
        "alt_km": 35776.370091199366,
        "timestamp": "2025-12-20T16:47:35.958844+00:00",
        "meta_object_name": "INTELSAT 14 (IS-14)",
        "meta_object_id": "2009-064A",
        "meta_epoch": "2025-12-20T06:10:04.195200",
        "meta_mean_motion": 1.00271027,
        "meta_eccentricity": 0.0002452,
        "meta_inclination": 0.0127,
        "meta_ra_of_asc_node": 0.8859,
        "meta_arg_of_pericenter": 279.4888,
        "meta_mean_anomaly": 216.2469,
        "meta_ephemeris_type": 0,
        "meta_classification_type": "U",
        "meta_norad_cat_id": 36097,
        "meta_element_set_no": 999,
        "meta_rev_at_epoch": 5881,
        "meta_bstar": 0,
        "meta_mean_motion_dot": -2.5e-06,
        "meta_mean_motion_ddot": 0,
        "tle_line1": "1 36097U 09064A   25354.25699300 -.00000250  00000+0  00000+0 0  9993",
        "tle_line2": "2 36097   0.0127   0.8859 0002452 279.4888 216.2469  1.00271027 58818"
      },
      "geometry": {
        "type": "Point",
        "coordinates": [
          -63.5624551759343,
          -0.03585238110023651
        ]
      }
    },
    {
      "type": "Feature",
      "properties": {
        "norad_id": 36106,
        "name": "INTELSAT 15 (IS-15)",
        "group": "intelsat",
        "lat": 0.02670741701610916,
        "lon": 66.59601274317538,
        "alt_km": 35793.583249681906,
        "timestamp": "2025-12-20T16:47:35.958856+00:00",
        "meta_object_name": "INTELSAT 15 (IS-15)",
        "meta_object_id": "2009-067A",
        "meta_epoch": "2025-12-20T08:29:50.808192",
        "meta_mean_motion": 1.00272009,
        "meta_eccentricity": 0.0002132,
        "meta_inclination": 0.0088,
        "meta_ra_of_asc_node": 26.4946,
        "meta_arg_of_pericenter": 253.5637,
        "meta_mean_anomaly": 21.7545,
        "meta_ephemeris_type": 0,
        "meta_classification_type": "U",
        "meta_norad_cat_id": 36106,
        "meta_element_set_no": 999,
        "meta_rev_at_epoch": 3943,
        "meta_bstar": 0,
        "meta_mean_motion_dot": -1.62e-06,
        "meta_mean_motion_ddot": 0,
        "tle_line1": "1 36106U 09067A   25354.35406028 -.00000162  00000+0  00000+0 0  9993",
        "tle_line2": "2 36106   0.0088  26.4946 0002132 253.5637  21.7545  1.00272009 39438"
      },
      "geometry": {
        "type": "Point",
        "coordinates": [
          66.59601274317538,
          0.02670741701610916
        ]
      }
    },
    {
      "type": "Feature",
      "properties": {
        "norad_id": 36131,
        "name": "DIRECTV 12",
        "group": "intelsat",
        "lat": -0.014371574225261394,
        "lon": -121.29150923898762,
        "alt_km": 35784.94216565299,
        "timestamp": "2025-12-20T16:47:35.958868+00:00",
        "meta_object_name": "DIRECTV 12",
        "meta_object_id": "2009-075A",
        "meta_epoch": "2025-12-20T12:06:43.360128",
        "meta_mean_motion": 1.00275526,
        "meta_eccentricity": 5.06e-05,
        "meta_inclination": 0.0134,
        "meta_ra_of_asc_node": 57.4464,
        "meta_arg_of_pericenter": 268.8941,
        "meta_mean_anomaly": 201.9691,
        "meta_ephemeris_type": 0,
        "meta_classification_type": "U",
        "meta_norad_cat_id": 36131,
        "meta_element_set_no": 999,
        "meta_rev_at_epoch": 4476,
        "meta_bstar": 0,
        "meta_mean_motion_dot": -8.1e-07,
        "meta_mean_motion_ddot": 0,
        "tle_line1": "1 36131U 09075A   25354.50466852 -.00000081  00000+0  00000+0 0  9998",
        "tle_line2": "2 36131   0.0134  57.4464 0000506 268.8941 201.9691  1.00275526 44760"
      },
      "geometry": {
        "type": "Point",
        "coordinates": [
          -121.29150923898762,
          -0.014371574225261394
        ]
      }
    },
    {
      "type": "Feature",
      "properties": {
        "norad_id": 36397,
        "name": "INTELSAT 16 (IS-16)",
        "group": "intelsat",
        "lat": -0.03818682211374728,
        "lon": -94.76491012086014,
        "alt_km": 35775.54099550903,
        "timestamp": "2025-12-20T16:47:35.958880+00:00",
        "meta_object_name": "INTELSAT 16 (IS-16)",
        "meta_object_id": "2010-006A",
        "meta_epoch": "2025-12-20T11:26:34.478016",
        "meta_mean_motion": 1.00277419,
        "meta_eccentricity": 0.0002148,
        "meta_inclination": 0.0116,
        "meta_ra_of_asc_node": 344.1839,
        "meta_arg_of_pericenter": 290.2193,
        "meta_mean_anomaly": 270.3649,
        "meta_ephemeris_type": 0,
        "meta_classification_type": "U",
        "meta_norad_cat_id": 36397,
        "meta_element_set_no": 999,
        "meta_rev_at_epoch": 5786,
        "meta_bstar": 0,
        "meta_mean_motion_dot": -2.21e-06,
        "meta_mean_motion_ddot": 0,
        "tle_line1": "1 36397U 10006A   25354.47678794 -.00000221  00000+0  00000+0 0  9990",
        "tle_line2": "2 36397   0.0116 344.1839 0002148 290.2193 270.3649  1.00277419 57869"
      },
      "geometry": {
        "type": "Point",
        "coordinates": [
          -94.76491012086014,
          -0.03818682211374728
        ]
      }
    },
    {
      "type": "Feature",
      "properties": {
        "norad_id": 37185,
        "name": "XM-5",
        "group": "intelsat",
        "lat": -0.06087681781651146,
        "lon": -133.7326327097458,
        "alt_km": 35780.31999749375,
        "timestamp": "2025-12-20T16:47:35.958892+00:00",
        "meta_object_name": "XM-5",
        "meta_object_id": "2010-053A",
        "meta_epoch": "2025-12-20T11:05:14.664192",
        "meta_mean_motion": 1.00280251,
        "meta_eccentricity": 0.0002037,
        "meta_inclination": 0.0654,
        "meta_ra_of_asc_node": 270.4731,
        "meta_arg_of_pericenter": 249.32,
        "meta_mean_anomaly": 340.6321,
        "meta_ephemeris_type": 0,
        "meta_classification_type": "U",
        "meta_norad_cat_id": 37185,
        "meta_element_set_no": 999,
        "meta_rev_at_epoch": 5569,
        "meta_bstar": 0,
        "meta_mean_motion_dot": -1e-08,
        "meta_mean_motion_ddot": 0,
        "tle_line1": "1 37185U 10053A   25354.46197528 -.00000001  00000+0  00000+0 0  9994",
        "tle_line2": "2 37185   0.0654 270.4731 0002037 249.3200 340.6321  1.00280251 55690"
      },
      "geometry": {
        "type": "Point",
        "coordinates": [
          -133.7326327097458,
          -0.06087681781651146
        ]
      }
    }
  ]
}